Plant name,Short Name,City,State,Location,NRC region,Docket number,License number,Latitude,Longitude,Website,Licensee,Parent company name,Parent company website,Reactor type,Design type,Architect,Constructor,Construction permit issued,Operating license issued,Commercial operation,Renewed operating license issued,Operating license expires,Licensed MWt,2008 capacity factor,2009 capacity factor,2010 capacity factor,2011 capacity factor,2012 capacity factor,2013 capacity factor,2014 capacity factor,2015 capacity factor
"Arkansas Nuclear One, Unit 1",ANO 1,London,AR,"London, AR (6 MI WNW of Russellville,  AR)",4,5000313,DPR-51,35.22667,-93.23083,https://www.nrc.gov/info-finder/reactors/ano1.html,"Entergy Operations, Inc.","Entergy Nuclear Operations, Inc.",www.entergy-nuclear.com,PWR-DRYAMB,B&W LLP,BECH,BECH,"12/5/1968, 7:00 PM","5/20/1974, 8:00 PM","12/18/1974, 7:00 PM","6/19/2001, 8:00 PM","5/19/2034, 8:00 PM",2568,0.83,0.99,0.9,0.87,1.02,0.560015195,0.98,0.823803709
"Arkansas Nuclear One, Unit 2",ANO 2,London,AR,"London, AR (6 MI WNW of Russellville,  AR)",4,5000368,NPF-6,35.22667,-93.23083,https://www.nrc.gov/info-finder/reactors/ano2.html,"Entergy Operations, Inc.","Entergy Nuclear Operations, Inc.",www.entergy-nuclear.com,PWR-DRYAMB,CE,BECH,BECH,"12/5/1972, 7:00 PM","8/31/1978, 8:00 PM","3/25/1980, 8:00 PM","6/29/2005, 8:00 PM","7/16/2038, 8:00 PM",3026,0.911002645,0.9,0.97,0.9,0.93,0.909777403,0.85,0.886280064
"Beaver Valley Power Station, Unit 1",Beaver Valley 1,Shippingport,PA,"Shippingport, PA(17 MI W of McCandless,  PA)",1,5000334,DPR-66,40.62194,-80.43389,https://www.nrc.gov/info-finder/reactors/bv1.html,First Energy Nuclear Operating Co.,First Energy Nuclear Operating Company,www.firstenergycorp.com,PWR-DRYAMB,WEST 3LP,S&W,S&W,"6/25/1970, 8:00 PM","7/1/1976, 8:00 PM","9/30/1976, 8:00 PM","11/4/2009, 7:00 PM","1/28/2036, 7:00 PM",2900,1.014075863,0.92,0.91,1.01,0.92,0.86089051,0.86,0.900649436
"Beaver Valley Power Station, Unit 2",Beaver Valley 2,Shippingport,PA,"Shippingport, PA (17 MI W of McCandless,  PA)",1,5000412,NPF-73,40.62194,-80.43389,https://www.nrc.gov/info-finder/reactors/bv2.html,First Energy Nuclear Operating Co.,First Energy Nuclear Operating Company,www.firstenergycorp.com,PWR-DRYAMB,WEST 3LP,S&W,S&W,"5/2/1974, 8:00 PM","8/13/1987, 8:00 PM","11/16/1987, 7:00 PM","11/4/2009, 7:00 PM","5/26/2047, 8:00 PM",2900,1.03,0.87,0.84,1.02,0.91,0.966991446,0.98,0.89736033
"Braidwood Station, Unit 1",Braidwood 1,Braceville,IL,"Braceville, IL (20 MI SSW of Joliet,  IL)",3,5000456,NPF-72,41.24361,-88.22889,https://www.nrc.gov/info-finder/reactors/brai1.html,"Exelon Generation Co., LLC","Exelon Corporation, LLC",www.exeloncorp.com,PWR-DRYAMB,WEST 4LP,S&L,CWE,"12/30/1975, 7:00 PM","7/1/1987, 8:00 PM","7/28/1988, 8:00 PM","1/26/2016, 7:00 PM","10/16/2046, 8:00 PM",3645,1.01398524,0.95,0.89,1.01,0.91,0.95,1.03,0.931354207
"Braidwood Station, Unit 2",Braidwood 2,Braceville,IL,"Braceville, IL (20 MI SSW of Joliet,  IL)",3,5000457,NPF-77,41.24361,-88.22889,https://www.nrc.gov/info-finder/reactors/brai2.html,"Exelon Generation Co., LLC","Exelon Corporation, LLC",www.exeloncorp.com,PWR-DRYAMB,WEST 4LP,S&L,CWE,"12/30/1975, 7:00 PM","5/19/1988, 8:00 PM","10/16/1988, 8:00 PM","1/26/2016, 7:00 PM","12/17/2047, 7:00 PM",3645,0.921430497,0.93,0.99,0.93,0.93,0.98,0.96,0.90817715
"Browns Ferry Nuclear Plant, Unit 1",Browns Ferry 1,Athens,AL,"Limestone County, AL (10 miles south of Athens, AL  and 32 MI W of Huntsville,  AL)",2,5000259,DPR-33,34.70417,-87.11861,https://www.nrc.gov/info-finder/reactors/bf1.html,Tenessee Valley Authority,Tennessee Valley Authority,www.tva.gov,BWR-MARK 1,GE 4,TVA,TVA,"5/9/1967, 8:00 PM","12/19/1973, 7:00 PM","7/31/1974, 8:00 PM","5/3/2006, 8:00 PM","12/19/2033, 7:00 PM",3458,0.877118555,0.94,0.86,0.91,0.88,0.939996056,0.9,0.936957069
"Browns Ferry Nuclear Plant, Unit 2",Browns Ferry 2,Athens,AL,"Limestone County, AL (10 miles south of Athens, AL  and 32 MI W of Huntsville,  AL)",2,5000260,DPR-52,34.70417,-87.11861,https://www.nrc.gov/info-finder/reactors/bf2.html,Tenessee Valley Authority,Tennessee Valley Authority,www.tva.gov,BWR-MARK 1,GE 4,TVA,TVA,"5/9/1967, 8:00 PM","6/27/1974, 8:00 PM","2/28/1975, 7:00 PM","5/3/2006, 8:00 PM","6/27/2034, 8:00 PM",3458,0.98,0.94,0.91,0.8,0.99,0.792529173,0.98,0.851340531
"Browns Ferry Nuclear Plant, Unit 3",Browns Ferry 3,Wheeler Lake,AL,"Limestone County, AL (10 miles south of Athens, AL  and 32 MI W of Huntsville,  AL)",2,5000296,DPR-68,34.70417,-87.11861,https://www.nrc.gov/info-finder/reactors/bf3.html,Tenessee Valley Authority,Tennessee Valley Authority,www.tva.gov,BWR-MARK 1,GE 4,TVA,TVA,"7/30/1968, 8:00 PM","7/1/1976, 8:00 PM","2/28/1977, 7:00 PM","5/3/2006, 8:00 PM","7/1/2036, 8:00 PM",3458,0.811608304,0.95,0.81,0.87,0.83,0.885835156,0.88,0.923127758
"Brunswick Steam Electric Plant, Unit 1",Brunswick 1,Southport,NC,"Southport, NC (20 MI S of Wilmington, NC)",2,5000325,DPR-71,33.95833,-78.01056,https://www.nrc.gov/info-finder/reactors/bru1.html,"Duke Energy Progress, Inc.",Duke Energy,www.duke-energy.com,BWR-MARK 1,GE 4,UE&C,BRRT,"2/6/1970, 7:00 PM","9/7/1976, 8:00 PM","3/17/1977, 8:00 PM","6/25/2006, 8:00 PM","9/7/2036, 8:00 PM",2923,0.853948811,0.98,0.83,1,0.77,0.919873495,0.89,0.933362043
"Brunswick Steam Electric Plant, Unit 2",Brunswick 2,Southport,NC,"Southport, NC (20 MI S of Wilmington, NC)",2,5000324,DPR-62,33.95833,-78.01056,https://www.nrc.gov/info-finder/reactors/bru2.html,"Duke Energy Progress, Inc.",Duke Energy,www.duke-energy.com,BWR-MARK 1,GE 4,UE&C,BRRT,"2/6/1970, 7:00 PM","12/26/1974, 7:00 PM","11/2/1975, 7:00 PM","6/25/2006, 8:00 PM","12/26/2034, 7:00 PM",2923,0.95321099,0.8,0.99,0.79,0.98,0.727034515,0.98,0.808426298
"Byron Station, Unit 1",Byron 1,Byron,IL,"Byron, Il (17 MI SW of Rockford,  IL)",3,5000454,NPF-37,42.075,-89.28194,https://www.nrc.gov/info-finder/reactors/byro1.html,"Exelon Generation Co., LLC","Exelon Corporation, LLC",www.exeloncorp.com,PWR-DRYAMB,WEST 4LP,S&L,CWE,"12/30/1975, 7:00 PM","2/13/1985, 7:00 PM","9/15/1985, 8:00 PM","11/18/2015, 7:00 PM","10/30/2044, 8:00 PM",3645,0.946765383,0.94,1.01,0.88,0.88,0.958277234,0.97,0.879373125
"Byron Station, Unit 2",Byron 2,Byron,IL,"Byron, Il (17 MI SW of Rockford,  IL)",3,5000455,NPF-66,42.075,-89.28194,https://www.nrc.gov/info-finder/reactors/byro2.html,"Exelon Generation Co., LLC","Exelon Corporation, LLC",www.exeloncorp.com,PWR-DRYAMB,WEST 4LP,S&L,CWE,"12/30/1975, 7:00 PM","1/29/1987, 7:00 PM","8/1/1987, 8:00 PM","11/18/2015, 7:00 PM","11/5/2046, 7:00 PM",3645,0.961397283,1.02,0.96,0.93,0.94,0.863273507,0.94,0.935754916
Callaway Plant,Callaway,Fulton,MO,"Fulton, MO (25 MI ENE of Jefferson City,  MO)",4,5000483,NPF-30,38.75833,-91.78167,https://www.nrc.gov/info-finder/reactors/call.html,Union Electric Co.,AmerenUE,www.ameren.com,PWR-DRYAMB,WEST 4LP,BECH,DANI,"4/15/1976, 8:00 PM","10/17/1984, 8:00 PM","12/18/1984, 7:00 PM","3/5/2015, 7:00 PM","10/17/2044, 8:00 PM",3565,0.9,0.98,0.86,0.9,1.03,0.772774065,0.89,0.964231539
"Calvert Cliffs Nuclear Power Plant, Unit 1",Calvert Cliffs 1,Lusby,MD,"Lusby, MD (40 MI S of Annapolis,  MD)",1,5000317,DPR-53,38.43472,-76.44194,https://www.nrc.gov/info-finder/reactors/calv1.html,Calvert Cliffs Nuclear Power Plant Inc.,"Exelon Corporation, LLC",www.exeloncorp.com,PWR-DRYAMB,CE,BECH,BECH,"7/6/1969, 8:00 PM","7/30/1974, 8:00 PM","5/7/1975, 8:00 PM","3/22/2000, 8:00 PM","7/30/2034, 8:00 PM",2737,0.9336082,0.98,0.9,1.01,0.81,0.971840337,0.91,0.966426791
"Calvert Cliffs Nuclear Power Plant, Unit 2",Calvert Cliffs 2,Lusby,MD,"Lusby, MD (40 MI S of Annapolis,  MD)",1,5000318,DPR-69,38.43472,-76.44194,https://www.nrc.gov/info-finder/reactors/calv2.html,Calvert Cliffs Nuclear Power Plant Inc.,"Exelon Corporation, LLC",www.exeloncorp.com,PWR-DRYAMB,CE,BECH,BECH,"7/6/1969, 8:00 PM","8/12/1976, 8:00 PM","3/31/1977, 8:00 PM","3/22/2000, 8:00 PM","8/12/2036, 8:00 PM",2737,0.991551159,0.93,0.97,0.92,1.01,0.808118431,1,0.861067671
"Catawba Nuclear Station, Unit 1",Catawba 1,York,NC,"York, SC (18 MI S of Charlotte, NC)",2,5000413,NPF-35,35.05139,-81.06944,https://www.nrc.gov/info-finder/reactors/cat1.html,"Duke Energy Carolinas, LLC",Duke Energy,www.duke-energy.com,PWR-ICECND,WEST 4LP,DUKE,DUKE,"8/6/1975, 8:00 PM","1/16/1985, 7:00 PM","6/28/1985, 8:00 PM","12/4/2003, 7:00 PM","12/4/2043, 7:00 PM",3411,0.89,0.91,1,0.89,0.89,0.956858978,0.86,0.87946456
"Catawba Nuclear Station, Unit 2",Catawba 2,York,NC,"York, SC (18 MI S of Charlotte, NC)",2,5000414,NPF-52,35.05139,-81.06944,https://www.nrc.gov/info-finder/reactors/cat2.html,"Duke Energy Carolinas, LLC",Duke Energy,www.duke-energy.com,PWR-ICECND,WEST 4LP,DUKE,DUKE,"8/6/1975, 8:00 PM","5/14/1986, 8:00 PM","8/18/1986, 8:00 PM","12/4/2003, 7:00 PM","12/4/2043, 7:00 PM",3411,1.02865414,0.9,0.92,1.01,0.92,0.858821975,1,0.861517744
"Clinton Power Station, Unit 1",Clinton,Clinton,IL,"Clinton, IL (23 MI SSE of Bloomington, IL)",3,5000461,NPF-62,40.17194,-88.83417,https://www.nrc.gov/info-finder/reactors/clin.html,"Exelon Generation Co., LLC","Exelon Corporation, LLC",www.exeloncorp.com,BWR-MARK 3,GE 6,S&L,BALD,"2/23/1976, 7:00 PM","4/16/1987, 8:00 PM","11/23/1987, 7:00 PM",,"9/28/2026, 8:00 PM",3473,0.993163723,0.97,0.92,0.93,1,0.822113216,0.97,0.869081281
Columbia Generating Station,Columbia Generating Station,Richland,WA,"Richland, WA (20 MI NNE of Pasco, WA)",4,5000397,NPF-21,46.2355,-119.5105,https://www.nrc.gov/info-finder/reactors/wash2.html,Energy Northwest,Energy Northwest,www.energy-northwest.com,BWR-MARK 2,GE 5,B&R,BECH,"3/18/1973, 8:00 PM","4/12/1984, 8:00 PM","12/12/1984, 7:00 PM","5/21/2012, 8:00 PM","12/19/2043, 7:00 PM",3486,0.93,0.67,0.95,0.5,0.97,0.804879186,0.98,0.776342466
"Comanche Peak Nuclear Power Plant, Unit 1",Comanche Peak 1,Glen Rose,TX,"Glen Rose, TX (40 MI SW of Fort Worth, TX)",4,5000445,NPF-87,32.29778,-97.785,https://www.nrc.gov/info-finder/reactors/cp1.html,Comanche Peak Power Company LLC,Vistra Energy,www.vistraenergy.com/,PWR-DRYAMB,WEST 4LP,G&H,BRRT,"12/18/1974, 7:00 PM","4/16/1990, 8:00 PM","8/12/1990, 8:00 PM",,"2/7/2030, 7:00 PM",3612,0.95615645,1,0.91,0.91,0.98,0.936269613,0.85,0.996364695
"Comanche Peak Nuclear Power Plant, Unit 2",Comanche Peak 2,Glen Rose,TX,"Glen Rose, TX (40 MI SW of Fort Worth, TX)",4,5000446,NPF-89,32.29778,-97.785,https://www.nrc.gov/info-finder/reactors/cp2.html,Comanche Peak Power Company LLC,Vistra Energy,www.vistraenergy.com/,PWR-DRYAMB,WEST 4LP,BECH,BRRT,"12/18/1974, 7:00 PM","4/5/1993, 8:00 PM","8/2/1993, 8:00 PM",,"2/1/2033, 7:00 PM",3612,0.947852518,0.94,1.04,0.92,0.91,0.98859838,0.93,0.878423812
Cooper Nuclear Station,Cooper,Brownville,NE,"Brownville, NE (23 MI S of Nebraska City,  NE)",4,5000298,DPR-46,40.36194,-95.64111,https://www.nrc.gov/info-finder/reactors/cns.html,Nebraska Public Power District,Nebraska Public Power District, www.nppd.com,BWR-MARK 1,GE 4,B&R,B&R,"6/3/1968, 8:00 PM","1/17/1974, 7:00 PM","6/30/1974, 8:00 PM","11/28/2010, 7:00 PM","1/17/2034, 7:00 PM",2419,0.896151326,0.72,1,0.86,0.87,0.969686722,0.88,0.969218129
"Davis-Besse Nuclear Power Station, Unit 1",Davis-Besse,Oak Harbor,OH,"Oak Harbor, OH (21 MI ESE of Toledo,  OH)",3,5000346,NFP-3,41.59722,-83.0864,https://www.nrc.gov/info-finder/reactors/davi.html,First Energy Nuclear Operating Co.,First Energy Nuclear Operating Company,www.firstenergycorp.com,PWR-DRYAMB,B&W RLP,BECH,B&W,"3/23/1971, 8:00 PM","4/21/1977, 8:00 PM","7/30/1978, 8:00 PM","12/7/2015, 7:00 PM","4/21/2037, 8:00 PM",2817,0.973184775,0.99,0.66,0.81,0.91,0.947775885,0.74,0.974193632
"Diablo Canyon Nuclear Power Plant, Unit 1",Diablo Canyon 1,Avila Beach,CA,"Avila Beach, CA (12 MI WSW of San Luis Obispo,  CA)",4,5000275,DPR-80,35.21167,-120.85444,https://www.nrc.gov/info-finder/reactors/diab1.html,Pacific Gas & Electric Co.,Pacific Gas & Electric Company,www.pge.com,PWR-DRYAMB,WEST 4LP,PG&E,PG&E,"4/22/1968, 8:00 PM","11/1/1984, 8:00 PM","5/6/1985, 8:00 PM",,"11/1/2024, 8:00 PM",3411,0.98059884,0.84,0.88,1,0.84,0.947822678,0.87,0.865735105
"Diablo Canyon Nuclear Power Plant, Unit 2",Diablo Canyon 2,Avila Beach,CA,"Avila Beach, CA (12 MI WSW of San Luis Obispo,  CA)",4,5000323,DPR-82,35.21167,-120.85444,https://www.nrc.gov/info-finder/reactors/diab2.html,Pacific Gas & Electric Co.,Pacific Gas & Electric Company,www.pge.com,PWR-DRYAMB,WEST 4LP,PG&E,PG&E,"12/8/1970, 7:00 PM","8/25/1985, 8:00 PM","3/12/1986, 8:00 PM",,"8/25/2025, 8:00 PM",3411,0.739111667,0.84,1,0.89,0.97,0.822756026,0.86,0.952834953
"Donald C. Cook Nuclear Plant, Unit 1",D.C. Cook 1,Bridgman,MI,"Bridgman, MI (13 M S of Benton Harbor, MI)",3,5000315,DPR-58,41.97611,-86.56639,https://www.nrc.gov/info-finder/reactors/cook1.html,Indiana Michigan Power Co.,Indiana Michigan Power Company,www.indianamichiganpower.com,PWR-ICECND,WEST 4LP,AEP,AEP,"3/24/1969, 8:00 PM","10/24/1974, 8:00 PM","8/27/1975, 8:00 PM","8/29/2005, 8:00 PM","10/24/2034, 8:00 PM",3304,0.636313931,0.03,0.88,0.87,1.04,0.777895104,0.94,0.775159144
"Donald C. Cook Nuclear Plant, Unit 2",D.C. Cook 2 ,Bridgman,MI,"Bridgman, MI (13 M S of Benton Harbor, MI)",3,5000316,DPR-74,41.97611,-86.56639,https://www.nrc.gov/info-finder/reactors/cook2.html,Indiana Michigan Power Co.,Indiana Michigan Power Company,www.indianamichiganpower.com,PWR-ICECND,WEST 4LP,AEP,AEP,"3/24/1969, 8:00 PM","12/22/1977, 7:00 PM","6/30/1978, 8:00 PM","8/29/2005, 8:00 PM","12/22/2037, 7:00 PM",3468,1.009189092,0.87,0.84,1.04,0.91,0.849365547,1.01,0.792153413
"Dresden Nuclear Power Station, Unit 2",Dresden 2,Morris,IL,"Morris, IL (25 M SW of Joliet, IL)",3,5000237,DPR-19,41.38972,-88.27111,https://www.nrc.gov/info-finder/reactors/dres2.html,"Exelon Generation Co., LLC","Exelon Corporation, LLC",www.exeloncorp.com,BWR-MARK 1,GE 3,S&L,UE&C,"1/9/1966, 7:00 PM","2/19/1991, 7:00 PM","6/8/1970, 8:00 PM","10/27/2004, 8:00 PM","12/21/2029, 7:00 PM",2957,0.977802122,0.91,1.02,0.95,1.04,0.853573772,0.98,0.832369858
"Dresden Nuclear Power Station, Unit 3",Dresden 3,Morris,IL,"Morris, IL (25 M SW of Joliet, IL)",3,5000249,DPR-25,41.38972,-88.27111,https://www.nrc.gov/info-finder/reactors/dres3.html,"Exelon Generation Co., LLC","Exelon Corporation, LLC",www.exeloncorp.com,BWR-MARK 1,GE 3,S&L,UE&C,"10/13/1966, 8:00 PM","1/11/1971, 7:00 PM","11/15/1971, 7:00 PM","10/27/2004, 8:00 PM","1/11/2031, 7:00 PM",2957,0.932229985,0.97,0.9,0.99,0.91,0.89014735,0.95,0.885995674
Duane Arnold Energy Center,Duane Arnold,Palo,IA,"Palo, IA (8 MI NW of Cedar Rapids,  IA)",3,5000331,DPR-49,42.10056,-91.77722,https://www.nrc.gov/info-finder/reactors/duan.html,"NextEra Duane Arnold, LLC","NextEra Energy, Inc. with principal subsidiaries  Florida Power & Light Co. and NextEra Energy Resources, LLC",www.fplgroup.com,BWR-MARK 1,GE 4,BECH,BECH,"6/21/1970, 8:00 PM","2/21/1974, 7:00 PM","1/31/1975, 7:00 PM","12/15/2010, 7:00 PM","2/20/2034, 7:00 PM",1912,1.03,0.92,0.89,0.99,0.83,0.893228747,0.79,0.880245434
"Edwin I. Hatch Nuclear Plant, Unit 1",Hatch 1,Baxley,GA,"Baxley , GA (20 MI S of Vidalia,  GA)",2,5000321,DPR-57,31.93417,-82.34444,https://www.nrc.gov/info-finder/reactors/hat1.html,Southern Nuclear Operating Co.,Southern Nuclear Operating Company,www.southerncompany.com,BWR-MARK 1,GE 4,BECH,GPC,"9/29/1969, 8:00 PM","10/12/1974, 8:00 PM","12/30/1975, 7:00 PM","1/14/2002, 7:00 PM","8/5/2034, 8:00 PM",2804,0.836461296,0.94,0.85,0.98,0.89,0.939954071,0.89,1.008420848
"Edwin I. Hatch Nuclear Plant, Unit 2",Hatch 2,Baxley,GA,"Baxley , GA (20 MI S of Vidalia,  GA)",2,5000366,NPF-5,31.93417,-82.34444,https://www.nrc.gov/info-finder/reactors/hat2.html,Southern Nuclear Operating Co.,Southern Nuclear Operating Company,www.southerncompany.com,BWR-MARK 1,GE 4,BECH,GPC,"12/26/1972, 7:00 PM","6/12/1978, 8:00 PM","9/4/1979, 8:00 PM","1/14/2002, 7:00 PM","6/12/2038, 8:00 PM",2804,0.963277977,0.67,0.96,0.78,0.98,0.893088922,0.99,0.914128329
"Fermi, Unit 2",Fermi 2,Newport,MI,"Newport, MI (25 MI NE of Toledo,  OH)",3,5000341,NPF-43,41.96333,-83.25861,https://www.nrc.gov/info-finder/reactors/ferm2.html,DTE Electric Company,DTE Electric Company (DTE),www.dteenergy.com,BWR-MARK 1,GE 4,S&L,DANI,"9/25/1972, 8:00 PM","12/14/2016, 7:00 PM","1/22/1988, 7:00 PM","12/14/2016, 7:00 PM","3/19/2045, 8:00 PM",3486,0.976195984,0.75,0.8,0.94,0.54,0.618986166,0.82,0.687609137
"Grand Gulf Nuclear Station, Unit 1",Grand Gulf 1,Port Gibson,MS,"Port Gibson, MS (20 MI S of Vicksburg,  MS)",4,5000416,NPF-29,32.0075,-91.04806,https://www.nrc.gov/info-finder/reactors/gg1.html,"Entergy Operations, Inc.","Entergy Nuclear Operations, Inc.",www.entergy-nuclear.com,BWR-MARK 3,GE 6,BECH,BECH,"9/3/1974, 8:00 PM","10/31/1984, 8:00 PM","6/30/1985, 8:00 PM",,"10/31/2024, 8:00 PM",4408,0.86,1,0.88,0.94,0.7,0.861278301,0.82,0.928667872
"H. B. Robinson Steam Electric Plant, Unit 2",Robinson 2,Hartsville,SC,"Hartsville, SC (26 MI NW of Florence,  SC)",2,5000261,DPR-23,34.40528,-80.15861,https://www.nrc.gov/info-finder/reactors/rob2.html,"Duke Energy Progress, Inc.",Duke Energy,www.duke-energy.com,PWR-DRYAMB,WEST 3LP,EBSO,EBSO,"4/12/1967, 8:00 PM","7/30/1970, 8:00 PM","3/6/1971, 7:00 PM","4/18/2004, 8:00 PM","7/30/2030, 8:00 PM",2339,0.870880955,1.04,0.57,1,0.85,0.845343089,0.86,0.849665699
"Hope Creek Generating Station, Unit 1",Hope Creek 1,Hancock's Bridge,NJ,"Hancocks Bridge, NJ (18 MI SE of Wilmington,  DE)",1,5000354,NPF-57,39.46778,-75.53806,https://www.nrc.gov/info-finder/reactors/hope.html,"PSEG Nuclear, LLC","PSEG Nuclear, LLC",www.pseg.com,BWR-MARK 1,GE 4,BECH,BECH,"11/3/1974, 7:00 PM","7/24/1986, 8:00 PM","12/19/1986, 7:00 PM","7/19/2011, 8:00 PM","4/10/2046, 8:00 PM",3840,1.082595766,0.95,0.93,1.03,0.93,0.802038878,1.02,0.83
"Indian Point Nuclear Generating, Unit 2",Indian Point 2,Buchanan,NY,"Buchanan, NY (24 MI N of New York,  NY)",1,5000247,DPR-26,41.27139,-73.9525,https://www.nrc.gov/info-finder/reactors/ip2.html,"Entergy Nuclear Operations, Inc.","Entergy Nuclear Operations, Inc.",www.entergy-nuclear.com,PWR-DRYAMB,WEST 4LP,UE&C,WDCO,"10/13/1966, 8:00 PM","9/27/1973, 8:00 PM","7/31/1974, 8:00 PM",,"9/27/2013, 8:00 PM",3216,0.914453644,0.98,0.82,0.98,0.9,0.771988551,0.93,0.774381681
"Indian Point Nuclear Generating, Unit 3",Indian Point 3,Buchanan,NY,"Buchanan, NY (24 MI N of New York,  NY)",1,5000286,DPR-64,41.27139,-73.9525,https://www.nrc.gov/info-finder/reactors/ip3.html,"Entergy Nuclear Operations, Inc.","Entergy Nuclear Operations, Inc.",www.entergy-nuclear.com,PWR-DRYAMB,WEST 4LP,UE&C,WDCO,"8/12/1969, 8:00 PM","12/11/1975, 7:00 PM","8/29/1976, 8:00 PM",,"12/11/2015, 7:00 PM",3216,1.07,0.85,0.99,0.9,1,0.935296082,0.98,0.858340553
James A. FitzPatrick Nuclear Power Plant,FitzPatrick,Scriba,NY,"Scriba, NY (6 MI NE of Oswego,  NY)",1,5000333,DPR-59,43.52389,-76.39833,https://www.nrc.gov/info-finder/reactors/fitz.html,"Entergy Nuclear FitzPatrick, LLC.","Entergy Nuclear Operations, Inc.",www.entergy-nuclear.com,BWR-MARK 1,GE 4,S&W,S&W,"5/19/1970, 8:00 PM","10/16/1974, 8:00 PM","7/27/1975, 8:00 PM","9/7/2008, 8:00 PM","10/16/2034, 8:00 PM",2536,0.892089434,0.99,0.85,0.97,0.84,0.885262583,0.79,0.955466121
"Joseph M. Farley Nuclear Plant, Unit 1",Farley 1,Columbia,AL,"Columbia, AL (18 MI S of Dothan,  AL)",2,5000348,NPF-2,31.22278,-85.1125,https://www.nrc.gov/info-finder/reactors/far1.html,Southern Nuclear Operating Co.,Southern Nuclear Operating Company,www.southerncompany.com,PWR-DRYAMB,WEST 3LP,SSI,DANI,"8/15/1972, 8:00 PM","6/24/1977, 8:00 PM","11/30/1977, 7:00 PM","5/11/2005, 8:00 PM","6/24/2037, 8:00 PM",2775,0.973838637,0.9,0.88,1.01,0.91,0.902624414,1.02,0.858062729
"Joseph M. Farley Nuclear Plant, Unit 2",Farley 2,Columbia,AL,"Columbia, AL (18 MI S of Dothan,  AL)",2,5000364,NPF-8,31.22278,-85.1125,https://www.nrc.gov/info-finder/reactors/far2.html,Southern Nuclear Operating Co.,Southern Nuclear Operating Company,www.southerncompany.com,PWR-DRYAMB,WEST 3LP,SSI,BECH,"8/15/1972, 8:00 PM","3/30/1981, 8:00 PM","7/29/1981, 8:00 PM","5/11/2005, 8:00 PM","3/30/2041, 8:00 PM",2775,0.90016825,0.96,0.88,0.89,1.04,0.909721579,0.89,0.977894118
"LaSalle County Station, Unit  1",La Salle 1,Marseilles,IL,"Marseilles, IL (11 MI SE of Ottawa,  IL)",3,5000373,NPF-11,41.24389,-88.67083,https://www.nrc.gov/info-finder/reactors/lasa1.html,"Exelon Generation Co., LLC","Exelon Corporation, LLC",www.exeloncorp.com,BWR-MARK 2,GE 5,S&L,CWE,"9/9/1973, 8:00 PM","4/16/1982, 8:00 PM","12/31/1983, 7:00 PM",,"4/16/2022, 8:00 PM",3546,1.001859984,0.99,0.94,1.01,0.97,0.953677067,0.93,0.990767279
"LaSalle County Station, Unit  2",La Salle 2,Marseilles,IL,"Marseilles, IL (11 MI SE of Ottawa,  IL)",3,5000374,NPF-18,41.24389,-88.67083,https://www.nrc.gov/info-finder/reactors/lasa2.html,"Exelon Generation Co., LLC","Exelon Corporation, LLC",www.exeloncorp.com,BWR-MARK 2,GE 5,S&L,CWE,"9/9/1973, 8:00 PM","12/15/1983, 7:00 PM","10/18/1984, 8:00 PM",,"12/15/2023, 7:00 PM",3546,0.94,0.93,1.01,0.96,1.03,0.876725403,0.95,0.83243541
"Limerick Generating Station, Unit 1",Limerick 1,Limerick,PA,"Limerick, PA (21 MI NW of Philadelphia,  PA)",1,5000352,NPF-39,40.22,-75.59,https://www.nrc.gov/info-finder/reactors/lim1.html,"Exelon Generation Co., LLC","Exelon Corporation, LLC",www.exeloncorp.com,BWR-MARK 2,GE 4,BECH,BECH,"6/18/1974, 8:00 PM","8/7/1985, 8:00 PM","1/31/1986, 7:00 PM","10/19/2014, 8:00 PM","10/25/2044, 8:00 PM",3515,0.95,1.01,0.91,0.96,0.85,1.014641037,0.91,1.00373866
"Limerick Generating Station, Unit 2",Limerick 2,Limerick,PA,"Limerick, PA (21 MI NW of Philadelphia,  PA)",1,5000353,NPF-85,40.22,-75.59,https://www.nrc.gov/info-finder/reactors/lim2.html,"Exelon Generation Co., LLC","Exelon Corporation, LLC",www.exeloncorp.com,BWR-MARK 2,GE 4,BECH,BECH,"6/18/1974, 8:00 PM","8/24/1989, 8:00 PM","1/7/1990, 7:00 PM","10/19/2014, 8:00 PM","6/21/2049, 8:00 PM",3515,1.01,0.94,0.99,0.9,0.95,0.943944861,0.99,0.890935532
"McGuire Nuclear Station, Unit 1",McGuire 1,Huntsville,NC,"Huntersville, NC (17 MI N of Charlotte,  NC)",2,5000369,NPF-9,35.43222,-80.94833,https://www.nrc.gov/info-finder/reactors/mcg1.html,"Duke Energy Carolinas, LLC",Duke Energy,www.duke-energy.com,PWR-ICECND,WEST 4LP,DUKE,DUKE,"2/22/1973, 7:00 PM","7/7/1981, 8:00 PM","11/30/1981, 7:00 PM","12/4/2003, 7:00 PM","6/11/2041, 8:00 PM",3411,0.865339564,1.04,0.92,0.94,1.05,0.821585261,0.82,0.953375908
"McGuire Nuclear Station, Unit 2",McGuire 2,Huntsville,NC,"Huntersville, NC (17 MI N of Charlotte,  NC)",2,5000370,NPF-17,35.43222,-80.94833,https://www.nrc.gov/info-finder/reactors/mcg2.html,"Duke Energy Carolinas, LLC",Duke Energy,www.duke-energy.com,PWR-ICECND,WEST 4LP,DUKE,DUKE,"2/22/1973, 7:00 PM","5/26/1983, 8:00 PM","2/29/1984, 7:00 PM","12/4/2003, 7:00 PM","3/2/2043, 7:00 PM",3411,0.901952,0.94,1.04,0.91,0.82,0.946661427,0.94,0.874605416
"Millstone Power Station, Unit 2",Millstone 2,Waterford,CT,"Waterford, CT (3.2 MI WSW of New London,  CT)",1,5000336,DPR-65,41.30861,-72.16806,https://www.nrc.gov/info-finder/reactors/mill2.html,"Dominion Nuclear Conneticut, Inc.",Dominion Generation,www.dom.com,PWR-DRYAMB,CE,BECH,BECH,"12/10/1970, 7:00 PM","9/25/1975, 8:00 PM","12/25/1975, 7:00 PM","11/27/2005, 7:00 PM","7/30/2035, 8:00 PM",2700,0.856482736,0.81,0.97,0.87,0.83,0.948264088,0.85,0.84774788
"Millstone Power Station, Unit 3",Millstone 3,Waterford,CT,"Waterford, CT (3.2 MI WSW of New London,  CT)",1,5000423,NPF-49,41.30861,-72.16806,https://www.nrc.gov/info-finder/reactors/mill3.html,"Dominion Nuclear Conneticut, Inc.",Dominion Generation,www.dom.com,PWR-DRYSUB,WEST 4LP,S&W,S&W,"8/8/1974, 8:00 PM","1/30/1986, 7:00 PM","4/22/1986, 8:00 PM","11/27/2005, 7:00 PM","11/24/2045, 7:00 PM",3650,0.877990871,1.05,0.86,0.87,1,0.867361255,0.87,0.97054831
"Monticello Nuclear Generating Plant, Unit 1",Monticello,Monticello,MN,"Monticello, MN (30 MI NW of Minneapolis,  MN)",3,5000263,DPR-22,45.33333,-93.84833,https://www.nrc.gov/info-finder/reactors/mont.html,Northern States Power Company - Minnesota,Northern States Power Company Minnesota doing business as Xcel Energy,www.xcelenergy.com,BWR-MARK 1,GE 3,BECH,BECH,"6/18/1967, 8:00 PM","1/8/1981, 7:00 PM","6/29/1971, 8:00 PM","11/7/2006, 7:00 PM","9/7/2030, 8:00 PM",2004,0.970856102,0.83,0.94,0.69,1.01,0.498879112,0.78,0.77723811
"Nine Mile Point Nuclear Station, Unit 1",Nine Mile Point 1,Scriba,NY,"Scriba, NY (6 MI NE of Oswego,  NY)",1,5000220,DPR-63,43.52222,-76.41,https://www.nrc.gov/info-finder/reactors/nmp1.html,"Nine Mile Point Nuclear Station, LLC","Exelon Corporation, LLC",www.exeloncorp.com,BWR-MARK 1,GE 2,NIAG,S&W,"4/11/1965, 8:00 PM","12/25/1974, 7:00 PM","11/30/1969, 7:00 PM","10/30/2006, 8:00 PM","8/21/2029, 8:00 PM",1850,0.979534229,0.92,0.97,0.84,0.87,0.875834827,0.98,0.879525847
"Nine Mile Point Nuclear Station, Unit 2",Nine Mile Point 2,Scriba,NY,"Scriba, NY (6 MI NE of Oswego,  NY)",1,5000410,NPF-69,43.52222,-76.41,https://www.nrc.gov/info-finder/reactors/nmp2.html,"Nine Mile Point Nuclear Station, LLC","Exelon Corporation, LLC",www.exeloncorp.com,BWR-MARK 2,GE 5,S&W,S&W,"6/23/1974, 8:00 PM","7/1/1987, 8:00 PM","3/10/1988, 7:00 PM","10/30/2006, 8:00 PM","10/30/2046, 8:00 PM",3988,0.903217273,0.99,0.89,0.95,0.83,0.990195524,0.87,1.002072113
"North Anna Power Station, Unit 1",North Anna 1,Louisa,VA,"Mineral (Louisa County), VA (40 MI NW of Richmond,  VA)",2,5000338,NPF-4,38.06083,-77.79056,https://www.nrc.gov/info-finder/reactors/na1.html,Virginia Electric & Power Co.,Dominion Generation,www.dom.com,PWR-DRYSUB,WEST 3LP,S&W,S&W,"2/18/1971, 7:00 PM","3/31/1978, 8:00 PM","6/5/1978, 8:00 PM","3/19/2003, 8:00 PM","3/31/2038, 8:00 PM",2940,1.00697445,0.92,0.86,0.78,0.89,0.893767939,1,0.907415781
"North Anna Power Station, Unit 2",North Anna 2,Louisa,VA,"Mineral (Louisa County), VA (40 MI NW of Richmond,  VA)",2,5000339,NPF-7,38.06083,-77.79056,https://www.nrc.gov/info-finder/reactors/na2.html,Virginia Electric & Power Co.,Dominion Generation,www.dom.com,PWR-DRYSUB,WEST 3LP,S&W,S&W,"2/18/1971, 7:00 PM","8/20/1980, 8:00 PM","12/13/1980, 7:00 PM","3/19/2003, 8:00 PM","8/20/2040, 8:00 PM",2940,0.818434605,1,1,0.76,0.99,0.854120539,0.92,0.987867976
"Oconee Nuclear Station, Unit 1",Oconee 1,Seneca,SC,"Seneca, SC (30 MI W of Greenville,  SC)",2,5000269,DPR-38,34.79167,-82.89861,https://www.nrc.gov/info-finder/reactors/oco1.html,"Duke Energy Carolinas, LLC",Duke Energy,www.duke-energy.com,PWR-DRYAMB,B&W LLP,DBDB,DUKE,"11/5/1967, 7:00 PM","2/5/1973, 7:00 PM","7/14/1973, 8:00 PM","5/22/2000, 8:00 PM","2/5/2033, 7:00 PM",2568,0.836550148,0.85,1,0.79,0.9,0.910574869,0.91,0.957119581
"Oconee Nuclear Station, Unit 2",Oconee 2,Seneca,SC,"Seneca, SC (30 MI W of Greenville,  SC)",2,5000270,DPR-47,34.79167,-82.89861,https://www.nrc.gov/info-finder/reactors/oco2.html,"Duke Energy Carolinas, LLC",Duke Energy,www.duke-energy.com,PWR-DRYAMB,B&W LLP,DBDB,DUKE,"11/5/1967, 7:00 PM","10/5/1973, 8:00 PM","9/8/1974, 8:00 PM","5/22/2000, 8:00 PM","10/5/2033, 8:00 PM",2568,0.860345023,1.03,0.91,0.93,1.02,0.822734269,1.01,0.894385672
"Oconee Nuclear Station, Unit 3",Oconee 3,Seneca,SC,"Seneca, SC (30 MI W of Greenville,  SC)",2,5000287,DPR-55,34.79167,-82.89861,https://www.nrc.gov/info-finder/reactors/oco3.html,"Duke Energy Carolinas, LLC",Duke Energy,www.duke-energy.com,PWR-DRYAMB,B&W LLP,DBDB,DUKE,"11/5/1967, 7:00 PM","7/18/1974, 8:00 PM","12/15/1974, 7:00 PM","5/22/2000, 8:00 PM","7/18/2034, 8:00 PM",2568,1.019446894,0.94,0.91,1.03,0.86,0.965554516,0.92,0.965567044
Oyster Creek Nuclear Generating Station,Oyster Creek,Forked River,NJ,"Forked River, NJ (9 MI S of Toms River,  NJ)",1,5000219,DPR-16,39.81417,-74.20639,https://www.nrc.gov/info-finder/reactors/oc.html,"Exelon Generation Co., LLC","Exelon Corporation, LLC",www.exeloncorp.com,BWR-MARK 1,GE 2,B&R,B&R,"12/14/1964, 7:00 PM","7/1/1991, 8:00 PM","11/30/1969, 7:00 PM","4/7/2009, 8:00 PM","4/8/2029, 8:00 PM",1930,0.828543636,0.92,0.85,0.98,0.88,1.058853051,0.9,1.091496264
Palisades Nuclear Plant,Palisades,Covert,MI,"Covert, MI (5 MI S of South Haven,  MI)",3,5000255,DPR-20,42.32222,-86.31528,https://www.nrc.gov/info-finder/reactors/pali.html,"Entergy Nuclear Operations, Inc.","Entergy Nuclear Operations, Inc.",www.entergy-nuclear.com,PWR-DRYAMB,CE,BECH,BECH,"3/13/1967, 8:00 PM","2/20/1991, 7:00 PM","12/30/1971, 7:00 PM","1/16/2007, 7:00 PM","3/23/2031, 8:00 PM",2565.4,0.992716806,0.9,0.92,0.96,0.74,0.849373552,0.86,0.888290933
"Palo Verde Nuclear Generating Station, Unit 1",Palo Verde 1,Wintersburg,AZ,"Wintersburg, AZ (50 MI W of Phoenix,  AZ)",4,5000528,NPF-41,33.38972,-112.86194,https://www.nrc.gov/info-finder/reactors/palo1.html,Arizona Public Service Company,Arizona Public Service Company,www.aps.com,PWR-DRYAMB,CE80-2L,BECH,BECH,"5/24/1976, 8:00 PM","5/31/1985, 8:00 PM","1/27/1986, 7:00 PM","4/20/2011, 8:00 PM","5/31/2045, 8:00 PM",3990,0.86430463,1.01,0.81,0.83,1,0.852862831,0.9,0.944731284
"Palo Verde Nuclear Generating Station, Unit 2",Palo Verde 2,Wintersburg,AZ,"Wintersburg, AZ (50 MI W of Phoenix,  AZ)",4,0'5000529,NPF-51,33.38972,-112.86194,https://www.nrc.gov/info-finder/reactors/palo2.html,Arizona Public Service Company,Arizona Public Service Company,www.aps.com,PWR-DRYAMB,CE80-2L,BECH,BECH,"5/24/1976, 8:00 PM","4/23/1986, 8:00 PM","9/18/1986, 8:00 PM","4/20/2011, 8:00 PM","4/23/2046, 8:00 PM",3990,0.744484316,0.83,1.01,0.91,0.9,0.914139059,0.9,0.846803409
"Palo Verde Nuclear Generating Station, Unit 3",Palo Verde 3,Wintersburg,AZ,"Wintersburg, AZ (50 MI W of Phoenix,  AZ)",4,5000530,NPF-74,33.38972,-112.86194,https://www.nrc.gov/info-finder/reactors/palo3.html,Arizona Public Service Company,Arizona Public Service Company,www.aps.com,PWR-DRYAMB,CE80-2L,BECH,BECH,"5/24/1976, 8:00 PM","11/24/1987, 7:00 PM","1/7/1988, 7:00 PM","4/20/2011, 8:00 PM","11/24/2047, 7:00 PM",3990,0.974399944,0.83,0.89,0.97,0.88,0.790391431,1.01,0.854913965
"Peach Bottom Atomic Power Station, Unit 2",Peach Bottom 2,Delta,PA,"Delta, PA (17.9 MI S of Lancaster,  PA)",1,5000277,DPR-44,39.75889,-76.26917,https://www.nrc.gov/info-finder/reactors/pb2.html,"Exelon Generation Co., LLC","Exelon Corporation, LLC",www.exeloncorp.com,BWR-MARK 1,GE 4,BECH,BECH,"1/30/1968, 7:00 PM","10/24/1973, 8:00 PM","7/4/1974, 8:00 PM","5/6/2003, 8:00 PM","8/7/2033, 8:00 PM",3951,0.889667774,1.02,0.92,1.01,0.88,0.999734983,0.88,0.986592489
"Peach Bottom Atomic Power Station, Unit 3",Peach Bottom 3,Delta,PA,"Delta, PA (17.9 MI S of Lancaster,  PA)",1,5000278,DPR-56,39.75889,-76.26917,https://www.nrc.gov/info-finder/reactors/pb3.html,"Exelon Generation Co., LLC","Exelon Corporation, LLC",www.exeloncorp.com,BWR-MARK 1,GE 4,BECH,BECH,"1/30/1968, 7:00 PM","7/1/1974, 8:00 PM","12/22/1974, 7:00 PM","5/6/2003, 8:00 PM","7/1/2034, 8:00 PM",3951,0.991087356,0.89,1,0.9,1.03,0.853765647,1.03,0.753435186
"Perry Nuclear Power Plant, Unit 1",Perry 1,Perry,OH,"Perry, OH (35 MI NE of Cleveland,  OH)",3,5000440,NPF-58,41.80111,-81.14333,https://www.nrc.gov/info-finder/reactors/perr1.html,First Energy Nuclear Operating Co.,First Energy Nuclear Operating Company,www.firstenergycorp.com,BWR-MARK 3,GE 6,GIL,KAIS,"5/2/1977, 8:00 PM","11/12/1986, 7:00 PM","11/17/1987, 7:00 PM",,"3/17/2026, 8:00 PM",3758,0.976942104,0.67,0.98,0.79,0.92,0.734476104,0.96,0.825088836
Pilgrim Nuclear Power Station,Pilgrim 1,Plymouth,MA,"Plymouth, MA (38 MI SE of Boston, MA)",1,5000293,DPR-35,41.94444,-70.57944,https://www.nrc.gov/info-finder/reactors/pilg.html,"Entergy Nuclear Operations, Inc.","Entergy Nuclear Operations, Inc.",www.entergy-nuclear.com,BWR-MARK 1,GE 3,BECH,BECH,"8/25/1968, 8:00 PM","6/7/1972, 8:00 PM","11/30/1972, 7:00 PM","5/28/2012, 8:00 PM","6/7/2032, 8:00 PM",2028,0.971287965,0.9,0.99,0.85,0.98,0.737859163,0.97,0.8510199
"Point Beach Nuclear Plant, Unit 1",Point Beach 1,Two Rivers,WI,"Two Rivers, WI (13 MI NNW of Manitowoc,  WI)",3,5000266,DPR-24,44.28083,-87.53611,https://www.nrc.gov/info-finder/reactors/poin1.html,"NextEra Energy Point Beach, LLC","NextEra Energy, Inc. with principal subsidiaries  Florida Power & Light Co. and NextEra Energy Resources, LLC",www.fplgroup.com,PWR-DRYAMB,WEST 2LP,BECH,BECH,"7/18/1967, 8:00 PM","10/4/1970, 8:00 PM","12/20/1970, 7:00 PM","12/21/2005, 7:00 PM","10/4/2030, 8:00 PM",1800,0.869961987,0.98,0.88,0.79,1,0.835131412,0.9,0.921482314
"Point Beach Nuclear Plant, Unit 2",Point Beach 2,Two Rivers,WI,"Two Rivers, WI (13 MI NNW of Manitowoc,  WI)",3,5000301,DPR-27,44.28083,-87.53611,https://www.nrc.gov/info-finder/reactors/poin2.html,"NextEra Energy Point Beach, LLC","NextEra Energy, Inc. with principal subsidiaries  Florida Power & Light Co. and NextEra Energy Resources, LLC",www.fplgroup.com,PWR-DRYAMB,WEST 2LP,BECH,BECH,"7/24/1968, 8:00 PM","3/7/1973, 7:00 PM","9/30/1972, 8:00 PM","12/21/2005, 7:00 PM","3/7/2033, 7:00 PM",1800,0.894295341,0.84,0.96,0.67,0.89,0.929874767,0.9,0.855324286
"Prairie Island Nuclear Generating Plant, Unit 1",Prairie Island 1,Welch,MN,"Welch, MN (28 MI SE of Minneapolis,  MN)",3,5000282,DPR-42,44.61944,-92.63306,https://www.nrc.gov/info-finder/reactors/prai1.html,Northern States Power Co. Minnesota,Northern States Power Company Minnesota doing business as Xcel Energy,www.xcelenergy.com,PWR-DRYAMB,WEST 2LP,FLUR,NSP,"6/24/1968, 8:00 PM","4/4/1974, 8:00 PM","12/15/1973, 7:00 PM","6/26/2011, 8:00 PM","8/8/2033, 8:00 PM",1677,0.838171159,0.97,0.96,0.91,0.81,0.89604865,0.84,0.768328944
"Prairie Island Nuclear Generating Plant, Unit 2",Prairie Island 2,Welch,MN,"Welch, MN (28 MI SE of Minneapolis,  MN)",3,5000306,DPR-60,44.61944,-92.63306,https://www.nrc.gov/info-finder/reactors/prai2.html,Northern States Power Co. Minnesota,Northern States Power Company Minnesota doing business as Xcel Energy,www.xcelenergy.com,PWR-DRYAMB,WEST 2LP,FLUR,NSP,"6/24/1968, 8:00 PM","10/28/1974, 8:00 PM","12/20/1974, 7:00 PM","6/26/2011, 8:00 PM","10/28/2034, 8:00 PM",1677,0.847827368,0.75,0.86,0.99,0.74,0.588959666,1.01,0.651337137
"Quad Cities Nuclear Power Station, Unit 1",Quad Cities 1,Cordova,IL,"Cordova, IL (20 MI NE of Moline,  IL)",3,5000254,DPR-29,41.72611,-90.31,https://www.nrc.gov/info-finder/reactors/quad1.html,"Exelon Generation Co., LLC","Exelon Corporation, LLC",www.exeloncorp.com,BWR-MARK 1,GE 3,S&L,UE&C,"2/14/1967, 7:00 PM","12/13/1972, 7:00 PM","2/17/1973, 7:00 PM","10/27/2004, 8:00 PM","12/13/2032, 7:00 PM",2957,0.964362041,0.82,0.99,0.92,1.02,0.84920476,1.03,0.832012015
"Quad Cities Nuclear Power Station, Unit 2",Quad Cities 2,Cordova,IL,"Cordova, IL (20 MI NE of Moline,  IL)",3,5000265,DPR-30,41.72611,-90.31,https://www.nrc.gov/info-finder/reactors/quad2.html,"Exelon Generation Co., LLC","Exelon Corporation, LLC",www.exeloncorp.com,BWR-MARK 1,GE 3,S&L,UE&C,"2/14/1967, 7:00 PM","12/13/1972, 7:00 PM","3/9/1973, 7:00 PM","10/27/2004, 8:00 PM","12/13/2032, 7:00 PM",2957,0.862715948,0.91,0.92,1.04,0.92,0.910553195,0.9,0.951138723
R.E. Ginna Nuclear Power Plant,Ginna,St. Francisville,LA,"Ontario, NY (20 MI NE of Rochester,  NY)",1,5000244,DPR-18,30.75722,-91.33167,https://www.nrc.gov/info-finder/reactors/ginn.html,"R.E. Ginna Nuclear Power Plant, LLC","Exelon Corporation, LLC",www.exeloncorp.com,PWR-DRYAMB,WEST 2LP,GIL,BECH,"4/24/1966, 8:00 PM","9/18/1969, 8:00 PM","6/30/1970, 8:00 PM","5/18/2004, 8:00 PM","9/17/2029, 8:00 PM",1775,1.085064612,0.91,0.97,0.84,0.9,0.928356611,0.91,0.89
"River Bend Station, Unit 1",River Bend 1,Ontario,NY,"St. Francisville, LA (24 MI NNW of Baton Rouge,  LA)",4,5000458,NPF-47,43.29167,-77.30889,https://www.nrc.gov/info-finder/reactors/rbs1.html,"Entergy Operations, Inc.","Entergy Nuclear Operations, Inc.",www.entergy-nuclear.com,BWR-MARK 3,GE 6,S&W,S&W,"3/24/1977, 8:00 PM","11/19/1985, 7:00 PM","6/15/1986, 8:00 PM",,"8/28/2025, 8:00 PM",3091,0.817161474,1.13,0.98,0.9,0.91,0.835960557,0.96,0.76
"St. Lucie Plant, Unit 1",Saint Lucie 1,Jensen Beach,FL,"Jensen Beach, FL (10 MI SE of Ft. Pierce,  FL)",2,5000335,DPR-67,27.34861,-80.24639,https://www.nrc.gov/info-finder/reactors/stl1.html,Florida Power & Light Co.,"NextEra Energy, Inc. with principal subsidiaries  Florida Power & Light Co. and NextEra Energy Resources, LLC",www.fplgroup.com,PWR-DRYAMB,CE,EBSO,EBSO,"6/30/1970, 8:00 PM","2/29/1976, 7:00 PM","12/20/1976, 7:00 PM","10/1/2003, 8:00 PM","2/29/2036, 7:00 PM",3020,0.905820611,1,0.72,0.85,0.72,0.737584771,1.01,0.827969094
"St. Lucie Plant, Unit 2",Saint Lucie 2,Jensen Beach,FL,"Jensen Beach, FL (10 MI SE of Ft. Pierce,  FL)",2,5000389,NPF-16,27.34861,-80.24639,https://www.nrc.gov/info-finder/reactors/stl2.html,Florida Power & Light Co.,"NextEra Energy, Inc. with principal subsidiaries  Florida Power & Light Co. and NextEra Energy Resources, LLC",www.fplgroup.com,PWR-DRYAMB,CE,EBSO,EBSO,"5/1/1977, 8:00 PM","6/9/1983, 8:00 PM","8/7/1983, 8:00 PM","10/1/2003, 8:00 PM","4/5/2043, 8:00 PM",3020,0.99,0.8,1,0.66,0.68,0.913428991,0.82,0.765475858
"Salem Nuclear Generating Station, Unit 1",Salem 1,Hancock's Bridge,DE,"Hancocks Bridge, NJ (18 MI SE of Wilmington,  DE)",1,5000272,DPR-70,39.46278,-75.53583,https://www.nrc.gov/info-finder/reactors/salm1.html,"PSEG Nuclear, LLC","PSEG Nuclear, LLC",www.pseg.com,PWR-DRYAMB,WEST 4LP,PSEG,UE&C,"9/24/1968, 8:00 PM","11/30/1976, 7:00 PM","6/29/1977, 8:00 PM","6/29/2011, 8:00 PM","8/12/2036, 8:00 PM",3459,0.907758376,0.99,0.85,0.86,0.97,0.876655446,0.86,0.95
"Salem Nuclear Generating Station, Unit 2",Salem 2,Hancock's Bridge,DE,"Hancocks Bridge, NJ (18 MI SE of Wilmington,  DE)",1,5000311,DPR-75,39.46278,-75.53583,https://www.nrc.gov/info-finder/reactors/salm2.html,"PSEG Nuclear, LLC","PSEG Nuclear, LLC",www.pseg.com,PWR-DRYAMB,WEST 4LP,PSEG,UE&C,"9/24/1968, 8:00 PM","5/19/1981, 8:00 PM","10/12/1981, 8:00 PM","6/29/2011, 8:00 PM","4/17/2040, 8:00 PM",3459,0.830027746,0.93,0.98,0.89,0.88,0.997417457,0.73,0.85
"Seabrook Station, Unit 1",Seabrook 1,Seabrook,NH,"Seabrook, NH (13 MI S of Portsmouth,  NH)",1,5000443,NPF-86,42.89806,-70.85139,https://www.nrc.gov/info-finder/reactors/seab1.html,"NextEra Energy Seabrook, LLC","NextEra Energy, Inc. with principal subsidiaries  Florida Power & Light Co. and NextEra Energy Resources, LLC",www.fplgroup.com,PWR-DRYAMB,WEST 4LP,UE&C,UE&C,"7/6/1976, 8:00 PM","3/14/1990, 8:00 PM","8/18/1990, 8:00 PM",,"3/14/2030, 8:00 PM",3648,0.89,0.81,1,0.77,0.75,1.004301962,0.93,0.87
"Sequoyah Nuclear Plant, Unit 1",Sequoyah 1,Soddy-Daisy,TN,"Soddy-Daisy, TN (16 MI NE of Chattanooga,  TN)",2,5000327,DPR-77,35.22333,-85.08778,https://www.nrc.gov/info-finder/reactors/seq1.html,Tenessee Valley Authority,Tennessee Valley Authority,www.tva.gov,PWR-ICECND,WEST 4LP,TVA,TVA,"5/26/1970, 8:00 PM","9/16/1980, 8:00 PM","6/30/1981, 8:00 PM","9/23/2015, 8:00 PM","9/16/2040, 8:00 PM",3455,1.014368161,0.89,0.84,0.98,0.89,0.829061907,1,0.871716336
"Sequoyah Nuclear Plant, Unit 2",Sequoyah 2,Soddy-Daisy,TN,"Soddy-Daisy, TN (16 MI NE of Chattanooga,  TN)",2,5000328,DPR-79,35.22333,-85.08778,https://www.nrc.gov/info-finder/reactors/seq2.html,Tenessee Valley Authority,Tennessee Valley Authority,www.tva.gov,PWR-ICECND,WEST 4LP,TVA,TVA,"5/26/1970, 8:00 PM","9/14/1981, 8:00 PM","5/31/1982, 8:00 PM","9/24/2015, 8:00 PM","9/14/2041, 8:00 PM",3455,0.89,0.89,0.97,0.89,0.77,0.902994963,0.9,0.726604438
"Shearon Harris Nuclear Power Plant, Unit 1",Shearon Harris 1,New Hill,NC,"New Hill, NC (20 MI SW of Raleigh,  NC)",2,5000400,NPF-63,35.63333,-78.95611,https://www.nrc.gov/info-finder/reactors/har1.html,"Duke Energy Progress, Inc.",Duke Energy,www.duke-energy.com,PWR-DRYAMB,WEST 3LP,EBSO,DANI,"1/26/1978, 7:00 PM","10/23/1986, 8:00 PM","5/1/1987, 8:00 PM","12/16/2008, 7:00 PM","10/23/2046, 8:00 PM",2948,0.989559553,0.94,0.9,1.03,0.9,0.826858894,0.99,0.87
"South Texas Project, Unit 1",South Texas 1,Bay City,TX,"Bay City, TX (90 MI SW of Houston, TX)",4,5000498,NPF-76,28.795,-96.04806,https://www.nrc.gov/info-finder/reactors/stp1.html,STP Nuclear Operating Co.,STP Nuclear Operating Company,www.stpnoc.com,PWR-DRYAMB,WEST 4LP,BECH,EBSO,"12/21/1975, 7:00 PM","3/21/1988, 8:00 PM","8/24/1988, 8:00 PM",,"8/19/2027, 8:00 PM",3853,0.954403781,0.9,1.01,0.94,0.93,0.912086714,0.81,0.781809521
"South Texas Project, Unit 2",South Texas 2,Bay City,TX,"Bay City, TX (90 MI SW of Houston, TX)",4,5000499,NPF-80,28.795,-96.04806,https://www.nrc.gov/info-finder/reactors/stp2.html,STP Nuclear Operating Co.,STP Nuclear Operating Company,www.stpnoc.com,PWR-DRYAMB,WEST 4LP,BECH,EBSO,"12/21/1975, 7:00 PM","3/27/1989, 8:00 PM","6/18/1989, 8:00 PM",,"12/14/2028, 7:00 PM",3853,0.95027358,1.01,0.88,0.88,0.72,0.590973389,1.03,0.853844098
"Surry Power Station, Unit 1",Surry 1,Surry,VA,"Surry, VA (17 MI NW of Newport News,  VA)",2,5000280,DPR-32,37.16556,-76.69833,https://www.nrc.gov/info-finder/reactors/sur1.html,Virginia Electric & Power Co.,Dominion Generation,www.dom.com,PWR-DRYSUB,WEST 3LP,S&W,S&W,"6/24/1968, 8:00 PM","5/24/1972, 8:00 PM","12/21/1972, 7:00 PM","3/19/2003, 8:00 PM","5/24/2032, 8:00 PM",2587,0.981717527,0.94,0.89,1.01,0.92,0.914695873,0.99,0.76
"Surry Power Station, Unit 2",Surry 2,Surry,VA,"Surry, VA (17 MI NW of Newport News,  VA)",2,5000281,DPR-37,37.16556,-76.69833,https://www.nrc.gov/info-finder/reactors/sur2.html,Virginia Electric & Power Co.,Dominion Generation,www.dom.com,PWR-DRYSUB,WEST 3LP,S&W,S&W,"6/24/1968, 8:00 PM","1/28/1973, 7:00 PM","4/30/1973, 8:00 PM","3/19/2003, 8:00 PM","1/28/2033, 7:00 PM",2587,0.941261105,0.92,1,0.76,0.91,1.013149123,0.95,0.82
"Susquehanna Steam Electric Station, Unit 1",Susquehanna 1,Salem Township,PA,"Salem Township, Luzerne Co., PA (70 MI NE of Harrisburg, PA)",1,5000387,NPF-14,41.09167,-76.14861,https://www.nrc.gov/info-finder/reactors/susq1.html,"Susquehanna Nuclear, LLC",Talen Energy Corporation,www.talenenergy.com,BWR-MARK 2,GE 4,BECH,BECH,"11/2/1973, 8:00 PM","7/16/1982, 8:00 PM","6/7/1983, 8:00 PM","11/23/2009, 7:00 PM","7/16/2042, 8:00 PM",3952,0.89,1.01,0.8,0.86,0.7,0.867088637,0.83,0.763184393
"Susquehanna Steam Electric Station, Unit 2",Susquehanna 2,Salem Township,PA,"Salem Township, Luzerne Co., PA (70 MI NE of Harrisburg, PA)",1,5000388,NPF-22,41.09167,-76.14861,https://www.nrc.gov/info-finder/reactors/susq2.html,"Susquehanna Nuclear, LLC",Talen Energy Corporation,www.talenenergy.com,BWR-MARK 2,GE 4,BECH,BECH,"11/2/1973, 8:00 PM","3/22/1984, 8:00 PM","2/11/1985, 7:00 PM","11/23/2009, 7:00 PM","3/22/2044, 8:00 PM",3952,1,0.9,0.96,0.72,0.83,0.795027914,0.88,0.82391364
"Three Mile Island Nuclear Station, Unit 1",Three Mile Island 1,Middletown,PA,"Middletown, PA (10 MI SE of Harrisburg,  PA)",1,5000289,DPR-50,40.15306,-76.725,https://www.nrc.gov/info-finder/reactors/tmi1.html,"Exelon Generation Co., LLC","Exelon Corporation, LLC",www.exeloncorp.com,PWR-DRYAMB,B&W LLP,GIL,UE&C,"5/17/1968, 8:00 PM","4/18/1974, 8:00 PM","9/1/1974, 8:00 PM","10/21/2009, 8:00 PM","4/18/2034, 8:00 PM",2568,1.066480172,0.86,0.94,0.92,1,0.778860225,1.04,0.77
Turkey Point Nuclear Generating Unit No. 3,Turkey Point 3,Homestead,FL,"Homestead, FL (20 MI S of Miami,  FL)",2,5000250,DPR-31,25.435,-80.33139,https://www.nrc.gov/info-finder/reactors/tp3.html,Florida Power & Light Co.,"NextEra Energy, Inc. with principal subsidiaries  Florida Power & Light Co. and NextEra Energy Resources, LLC",www.fplgroup.com,PWR-DRYAMB,WEST 3LP,BECH,BECH,"4/26/1967, 8:00 PM","7/18/1972, 8:00 PM","12/13/1972, 7:00 PM","6/5/2002, 8:00 PM","7/18/2032, 8:00 PM",2644,1.008270317,0.86,0.88,0.96,0.4,0.812149399,0.84,0.78
Turkey Point Nuclear Generating Unit No. 4,Turkey Point 4,Homestead,FL,"Homestead, FL (20 MI S of Miami,  FL)",2,5000251,DPR-41,25.435,-80.33139,https://www.nrc.gov/info-finder/reactors/tp4.html,Florida Power & Light Co.,"NextEra Energy, Inc. with principal subsidiaries  Florida Power & Light Co. and NextEra Energy Resources, LLC",www.fplgroup.com,PWR-DRYAMB,WEST 3LP,BECH,BECH,"4/26/1967, 8:00 PM","4/9/1973, 8:00 PM","9/6/1973, 8:00 PM","6/5/2002, 8:00 PM","4/9/2033, 8:00 PM",2644,0.89,0.99,0.98,0.84,0.85,0.700941781,0.88,1.06
"Virgil C. Summer Nuclear Station, Unit 1",Summer,Jenkinsville,SC,"Jenkinsville, SC (26 MI NW of Columbia,  SC)",2,5000395,NPF-12,34.29583,-81.32028,https://www.nrc.gov/info-finder/reactors/sum.html,South Carolina Electric & Gas Co.,South Carolina Electric & Gas Company,www.sceg.com,PWR-DRYAMB,WEST 3LP,GIL,DANI,"3/20/1973, 8:00 PM","11/11/1982, 7:00 PM","12/31/1983, 7:00 PM","4/22/2004, 8:00 PM","8/5/2042, 8:00 PM",2900,0.866215559,0.81,1,0.88,0.86,0.927667243,0.81,0.79
"Vogtle Electric Generating Plant, Unit 1",Vogtle 1,Waynesboro,GA,"Waynesboro, GA (26 MI SE of Augusta,  GA)",2,5000424,NPF-68,33.14194,-81.76472,https://www.nrc.gov/info-finder/reactors/vog1.html,Southern Nuclear Operating Co.,Southern Nuclear Operating Company,www.southerncompany.com,PWR-DRYAMB,WEST 4LP,SBEC,GPC,"6/27/1974, 8:00 PM","3/15/1987, 8:00 PM","5/31/1987, 8:00 PM","6/2/2009, 8:00 PM","1/15/2047, 7:00 PM",3625.6,0.931916235,0.91,1.02,0.92,0.91,1.005983605,0.87,0.91
"Vogtle Electric Generating Plant, Unit 2",Vogtle 2,Waynesboro,GA,"Waynesboro, GA (26 MI SE of Augusta,  GA)",2,5000425,NPF-81,33.14194,-81.76472,https://www.nrc.gov/info-finder/reactors/vog2.html,Southern Nuclear Operating Co.,Southern Nuclear Operating Company,www.southerncompany.com,PWR-DRYAMB,WEST 4LP,SBEC,GPC,"6/27/1974, 8:00 PM","3/30/1989, 8:00 PM","5/19/1989, 8:00 PM","6/2/2009, 8:00 PM","2/8/2049, 7:00 PM",3625.6,0.883756847,1.01,0.93,0.94,1.02,0.871570422,0.92,1
"Waterford Steam Electric Station, Unit 3",Waterford 3,Killona,LA,"Killona, LA (25 MI W of New Orleans,  LA)",4,5000382,NPF-38,29.995,-90.47111,https://www.nrc.gov/info-finder/reactors/wat3.html,"Entergy Operations, Inc.","Entergy Nuclear Operations, Inc.",www.entergy-nuclear.com,PWR-DRYAMB,COMB CE,EBSO,EBSO,"11/13/1974, 7:00 PM","3/15/1985, 8:00 PM","9/23/1985, 8:00 PM",,"12/17/2024, 7:00 PM",3716,0.889138223,0.87,1,0.82,0.77,0.891148307,0.9,0.8
"Watts Bar Nuclear Plant, Unit 1",Watts Bar 1,Spring City,TN,"Spring City, TN (60 MI SW of Knoxville,  TN)",2,5000390,NPF-90,35.60278,-84.79028,https://www.nrc.gov/info-finder/reactors/wb1.html,Tenessee Valley Authority,Tennessee Valley Authority,www.tva.gov,PWR-ICECND,WEST 4LP,TVA,TVA,"1/22/1973, 7:00 PM","2/6/1996, 7:00 PM","5/26/1996, 8:00 PM",,"11/8/2035, 7:00 PM",3459,0.822887826,0.94,0.99,0.84,0.87,0.895966185,0.89,0.76
"Watts Bar Nuclear Plant, Unit 2",Watts Bar 2,Spring City,TN,"Spring City, TN (60 MI SW of Knoxville,  TN)",2,5000391,NPF-96,35.60278,-84.79028,https://www.nrc.gov/info-finder/reactors/wb2.html,Tenessee Valley Authority,Tennessee Valley Authority,www.tva.gov,PWR-ICECND,WEST 4LP,TVA,TVA,"1/23/1973, 7:00 PM","10/21/2015, 8:00 PM","10/18/2016, 8:00 PM",,"10/21/2055, 8:00 PM",3411,0,0,0,0,0,0,0,0
"Wolf Creek Generating Station, Unit 1",Wolf Creek 1,Burlington,KS,"Burlington (Coffey County), KS (28 MI SE of Emporia, KS)",4,5000482,NPF-42,38.23889,-95.68889,https://www.nrc.gov/info-finder/reactors/wc.html,Wolf Creek Nuclear Operating Corp.,Wolf Creek Nuclear Operating Corporation,www.wcnoc.com,PWR-DRYAMB,WEST 4LP,BECH,DANI,"5/16/1977, 8:00 PM","6/3/1985, 8:00 PM","9/2/1985, 8:00 PM","11/19/2008, 7:00 PM","3/10/2045, 7:00 PM",3565,0.826668713,0.86,0.86,0.72,0.8,0.645346373,0.83,0.78
